{
  "type": "FeatureCollection",
  "features": [
    {
      "type": "Feature",
      "properties": {
        "norad_id": 38819,
        "name": "FENGYUN 1C DEB",
        "group": "fengyun-1c-debris",
        "lat": -77.20767143115178,
        "lon": 19.671263632942217,
        "alt_km": 824.0359370845617,
        "timestamp": "2025-12-10T21:43:22.378054+00:00",
        "meta_object_name": "FENGYUN 1C DEB",
        "meta_object_id": "1999-025EVK",
        "meta_epoch": "2025-12-05T17:44:45.178656",
        "meta_mean_motion": 14.19352326,
        "meta_eccentricity": 0.00793982,
        "meta_inclination": 98.6175,
        "meta_ra_of_asc_node": 332.7424,
        "meta_arg_of_pericenter": 214.8039,
        "meta_mean_anomaly": 323.5095,
        "meta_ephemeris_type": 0,
        "meta_classification_type": "U",
        "meta_norad_cat_id": 38819,
        "meta_element_set_no": 999,
        "meta_rev_at_epoch": 63378,
        "meta_bstar": 0.00071386354,
        "meta_mean_motion_dot": 1.505e-05,
        "meta_mean_motion_ddot": 0,
        "tle_line1": "1 38819U 99025EVK 25339.73941179  .00001505  00000+0  71386-3 0  9995",
        "tle_line2": "2 38819  98.6175 332.7424 0079398 214.8039 323.5095 14.19352326633785"
      },
      "geometry": {
        "type": "Point",
        "coordinates": [
          19.671263632942217,
          -77.20767143115178
        ]
      }
    },
    {
      "type": "Feature",
      "properties": {
        "norad_id": 38824,
        "name": "FENGYUN 1C DEB",
        "group": "fengyun-1c-debris",
        "lat": -17.959319639611422,
        "lon": 121.4439762182018,
        "alt_km": 899.3475028896692,
        "timestamp": "2025-12-10T21:43:22.378063+00:00",
        "meta_object_name": "FENGYUN 1C DEB",
        "meta_object_id": "1999-025EVQ",
        "meta_epoch": "2025-11-20T14:24:21.461760",
        "meta_mean_motion": 14.13875773,
        "meta_eccentricity": 0.00960414,
        "meta_inclination": 99.2955,
        "meta_ra_of_asc_node": 97.2934,
        "meta_arg_of_pericenter": 263.2679,
        "meta_mean_anomaly": 95.7556,
        "meta_ephemeris_type": 0,
        "meta_classification_type": "U",
        "meta_norad_cat_id": 38824,
        "meta_element_set_no": 999,
        "meta_rev_at_epoch": 68824,
        "meta_bstar": 0.0027703315,
        "meta_mean_motion_dot": 5.443e-05,
        "meta_mean_motion_ddot": 0,
        "tle_line1": "1 38824U 99025EVQ 25324.60024840  .00005443  00000+0  27703-2 0  9996",
        "tle_line2": "2 38824  99.2955  97.2934 0096041 263.2679  95.7556 14.13875773688246"
      },
      "geometry": {
        "type": "Point",
        "coordinates": [
          121.4439762182018,
          -17.959319639611422
        ]
      }
    },
    {
      "type": "Feature",
      "properties": {
        "norad_id": 38827,
        "name": "FENGYUN 1C DEB",
        "group": "fengyun-1c-debris",
        "lat": 50.61988258431934,
        "lon": -161.75639619074798,
        "alt_km": 930.250582845455,
        "timestamp": "2025-12-10T21:43:22.378076+00:00",
        "meta_object_name": "FENGYUN 1C DEB",
        "meta_object_id": "1999-025EVT",
        "meta_epoch": "2025-12-10T07:42:42.702048",
        "meta_mean_motion": 14.32827414,
        "meta_eccentricity": 0.021646,
        "meta_inclination": 98.3872,
        "meta_ra_of_asc_node": 7.3235,
        "meta_arg_of_pericenter": 320.0976,
        "meta_mean_anomaly": 38.4466,
        "meta_ephemeris_type": 0,
        "meta_classification_type": "U",
        "meta_norad_cat_id": 38827,
        "meta_element_set_no": 999,
        "meta_rev_at_epoch": 61025,
        "meta_bstar": 0.0014001,
        "meta_mean_motion_dot": 4.908e-05,
        "meta_mean_motion_ddot": 0,
        "tle_line1": "1 38827U 99025EVT 25344.32132757  .00004908  00000+0  14001-2 0  9999",
        "tle_line2": "2 38827  98.3872   7.3235 0216460 320.0976  38.4466 14.32827414610254"
      },
      "geometry": {
        "type": "Point",
        "coordinates": [
          -161.75639619074798,
          50.61988258431934
        ]
      }
    },
    {
      "type": "Feature",
      "properties": {
        "norad_id": 38829,
        "name": "FENGYUN 1C DEB",
        "group": "fengyun-1c-debris",
        "lat": -43.2781630407633,
        "lon": 172.59183766858587,
        "alt_km": 898.2784267561092,
        "timestamp": "2025-12-10T21:43:22.378086+00:00",
        "meta_object_name": "FENGYUN 1C DEB",
        "meta_object_id": "1999-025EVV",
        "meta_epoch": "2025-12-09T00:21:36.740448",
        "meta_mean_motion": 14.09204393,
        "meta_eccentricity": 0.00412839,
        "meta_inclination": 98.7497,
        "meta_ra_of_asc_node": 359.0946,
        "meta_arg_of_pericenter": 41.119,
        "meta_mean_anomaly": 319.3079,
        "meta_ephemeris_type": 0,
        "meta_classification_type": "U",
        "meta_norad_cat_id": 38829,
        "meta_element_set_no": 999,
        "meta_rev_at_epoch": 64080,
        "meta_bstar": 0.00074064709,
        "meta_mean_motion_dot": 1.255e-05,
        "meta_mean_motion_ddot": 0,
        "tle_line1": "1 38829U 99025EVV 25343.01500857  .00001255  00000+0  74065-3 0  9995",
        "tle_line2": "2 38829  98.7497 359.0946 0041283  41.1190 319.3079 14.09204393640801"
      },
      "geometry": {
        "type": "Point",
        "coordinates": [
          172.59183766858587,
          -43.2781630407633
        ]
      }
    },
    {
      "type": "Feature",
      "properties": {
        "norad_id": 38832,
        "name": "FENGYUN 1C DEB",
        "group": "fengyun-1c-debris",
        "lat": -28.16065550419217,
        "lon": 34.24920343833587,
        "alt_km": 869.3243070870258,
        "timestamp": "2025-12-10T21:43:22.378098+00:00",
        "meta_object_name": "FENGYUN 1C DEB",
        "meta_object_id": "1999-025EVY",
        "meta_epoch": "2025-12-06T01:35:41.081280",
        "meta_mean_motion": 14.04461067,
        "meta_eccentricity": 0.00842955,
        "meta_inclination": 99.2666,
        "meta_ra_of_asc_node": 24.2995,
        "meta_arg_of_pericenter": 61.4582,
        "meta_mean_anomaly": 299.5038,
        "meta_ephemeris_type": 0,
        "meta_classification_type": "U",
        "meta_norad_cat_id": 38832,
        "meta_element_set_no": 999,
        "meta_rev_at_epoch": 63664,
        "meta_bstar": 0.0018423355,
        "meta_mean_motion_dot": 2.987e-05,
        "meta_mean_motion_ddot": 0,
        "tle_line1": "1 38832U 99025EVY 25340.06644770  .00002987  00000+0  18423-2 0  9992",
        "tle_line2": "2 38832  99.2666  24.2995 0084295  61.4582 299.5038 14.04461067636643"
      },
      "geometry": {
        "type": "Point",
        "coordinates": [
          34.24920343833587,
          -28.16065550419217
        ]
      }
    },
    {
      "type": "Feature",
      "properties": {
        "norad_id": 39537,
        "name": "FENGYUN 1C DEB",
        "group": "fengyun-1c-debris",
        "lat": -48.60502739691467,
        "lon": 141.23866465931604,
        "alt_km": 849.3593836754308,
        "timestamp": "2025-12-10T21:43:22.378112+00:00",
        "meta_object_name": "FENGYUN 1C DEB",
        "meta_object_id": "1999-025EWE",
        "meta_epoch": "2025-12-08T16:10:28.003008",
        "meta_mean_motion": 13.84154142,
        "meta_eccentricity": 0.01774078,
        "meta_inclination": 99.1538,
        "meta_ra_of_asc_node": 128.5243,
        "meta_arg_of_pericenter": 352.1329,
        "meta_mean_anomaly": 7.7052,
        "meta_ephemeris_type": 0,
        "meta_classification_type": "U",
        "meta_norad_cat_id": 39537,
        "meta_element_set_no": 999,
        "meta_rev_at_epoch": 59200,
        "meta_bstar": 0.0019509183,
        "meta_mean_motion_dot": 2.413e-05,
        "meta_mean_motion_ddot": 0,
        "tle_line1": "1 39537U 99025EWE 25342.67393522  .00002413  00000+0  19509-2 0  9990",
        "tle_line2": "2 39537  99.1538 128.5243 0177407 352.1329   7.7052 13.84154142592000"
      },
      "geometry": {
        "type": "Point",
        "coordinates": [
          141.23866465931604,
          -48.60502739691467
        ]
      }
    },
    {
      "type": "Feature",
      "properties": {
        "norad_id": 39541,
        "name": "FENGYUN 1C DEB",
        "group": "fengyun-1c-debris",
        "lat": 24.01801392768957,
        "lon": -149.047352506035,
        "alt_km": 811.9934353506178,
        "timestamp": "2025-12-10T21:43:22.378122+00:00",
        "meta_object_name": "FENGYUN 1C DEB",
        "meta_object_id": "1999-025EWJ",
        "meta_epoch": "2025-11-26T08:43:14.269440",
        "meta_mean_motion": 14.20329557,
        "meta_eccentricity": 0.00721468,
        "meta_inclination": 98.6819,
        "meta_ra_of_asc_node": 12.7746,
        "meta_arg_of_pericenter": 119.8468,
        "meta_mean_anomaly": 240.9905,
        "meta_ephemeris_type": 0,
        "meta_classification_type": "U",
        "meta_norad_cat_id": 39541,
        "meta_element_set_no": 999,
        "meta_rev_at_epoch": 58770,
        "meta_bstar": 0.00069059031,
        "meta_mean_motion_dot": 1.475e-05,
        "meta_mean_motion_ddot": 0,
        "tle_line1": "1 39541U 99025EWJ 25330.36335960  .00001475  00000+0  69059-3 0  9993",
        "tle_line2": "2 39541  98.6819  12.7746 0072146 119.8468 240.9905 14.20329557587703"
      },
      "geometry": {
        "type": "Point",
        "coordinates": [
          -149.047352506035,
          24.01801392768957
        ]
      }
    }
  ]
}